FENGYUN 1C DEB          
1 30841U 99025AWB 17345.54437021  .00000057  00000-0  12099-3 0  9993
2 30841  98.7388 195.8886 0359925 256.9229  99.1503 13.39767198525995
